[{"OBJECT_NAME":"STARLINK-33750","OBJECT_ID":"2025-071W","EPOCH":"2026-03-09T12:52:42.250368","MEAN_MOTION":15.30181383,"ECCENTRICITY":0.00012263,"INCLINATION":53.1584,"RA_OF_ASC_NODE":140.7934,"ARG_OF_PERICENTER":100.9824,"MEAN_ANOMALY":259.1314,"EPHEMERIS_TYPE":0,"CLASSIFICATION_TYPE":"U","NORAD_CAT_ID":63513,"ELEMENT_SET_NO":999,"REV_AT_EPOCH":5272,"BSTAR":0.00099185208,"MEAN_MOTION_DOT":0.00029115,"MEAN_MOTION_DDOT":0},{"OBJECT_NAME":"CZ-6A DEB","OBJECT_ID":"2022-151QV","EPOCH":"2026-03-09T04:36:08.895168","MEAN_MOTION":15.24642942,"ECCENTRICITY":0.00273347,"INCLINATION":98.639,"RA_OF_ASC_NODE":154.2763,"ARG_OF_PERICENTER":174.5721,"MEAN_ANOMALY":185.5815,"EPHEMERIS_TYPE":0,"CLASSIFICATION_TYPE":"U","NORAD_CAT_ID":54908,"ELEMENT_SET_NO":999,"REV_AT_EPOCH":17373,"BSTAR":0.0098290719,"MEAN_MOTION_DOT":0.00253193,"MEAN_MOTION_DDOT":0}]
